start=new Date('2022-10-08T00:00:00.000Z').valueOf();
sats=[{"OBJECT_NAME":"STARLINK-2507","MEAN_ELEMENT_THEORY":"SGP4","COUNTRY_CODE":"US","ARG_OF_PERICENTER":"53.8651","RA_OF_ASC_NODE":"298.2875","REV_AT_EPOCH":"7992","FILE":"3595773","ECCENTRICITY":"0.00017930","TIME_SYSTEM":"UTC","RCS_SIZE":"LARGE","REF_FRAME":"TEME","MEAN_MOTION":"15.06398858","LAUNCH_DATE":"2021-04-29","MEAN_ANOMALY":"306.2504","TLE_LINE1":"1 48316U 21036AS  22280.75712535  .00003442  00000-0  24986-3 0  9998","TLE_LINE2":"2 48316  53.0543 298.2875 0001793  53.8651 306.2504 15.06398858 79923","OBJECT_TYPE":"PAYLOAD","APOAPSIS":"548.459","MEAN_MOTION_DDOT":"0.0000000000000","CLASSIFICATION_TYPE":"U","DECAY_DATE":null,"EPOCH":"2022-10-07T18:10:15.630240","GP_ID":"214434420","MEAN_MOTION_DOT":"0.00003442","NORAD_CAT_ID":"48316","PERIAPSIS":"545.975","INCLINATION":"53.0543","SITE":"AFETR","ELEMENT_SET_NO":"999","BSTAR":"0.00024986000000","CENTER_NAME":"EARTH","PERIOD":"95.592","EPHEMERIS_TYPE":"0","OBJECT_ID":"2021-036AS","SEMIMAJOR_AXIS":"6925.352"},{"SITE":"AFETR","BSTAR":"0.00015505000000","ELEMENT_SET_NO":"999","NORAD_CAT_ID":"48317","PERIAPSIS":"545.929","INCLINATION":"53.0547","MEAN_MOTION_DOT":"0.00002028","GP_ID":"214434670","EPOCH":"2022-10-07T18:04:57.127008","CLASSIFICATION_TYPE":"U","DECAY_DATE":null,"APOAPSIS":"548.519","MEAN_MOTION_DDOT":"0.0000000000000","SEMIMAJOR_AXIS":"6925.359","OBJECT_ID":"2021-036AT","EPHEMERIS_TYPE":"0","PERIOD":"95.592","CENTER_NAME":"EARTH","LAUNCH_DATE":"2021-04-29","REF_FRAME":"TEME","MEAN_MOTION":"15.06396524","RCS_SIZE":"LARGE","ECCENTRICITY":"0.00018700","TIME_SYSTEM":"UTC","REV_AT_EPOCH":"7992","RA_OF_ASC_NODE":"298.3066","FILE":"3595773","COUNTRY_CODE":"US","ARG_OF_PERICENTER":"58.4267","OBJECT_NAME":"STARLINK-2513","MEAN_ELEMENT_THEORY":"SGP4","OBJECT_TYPE":"PAYLOAD","TLE_LINE2":"2 48317  53.0547 298.3066 0001870  58.4267 301.6904 15.06396524 79922","MEAN_ANOMALY":"301.6904","TLE_LINE1":"1 48317U 21036AT  22280.75343897  .00002028  00000-0  15505-3 0  9996"},{"CENTER_NAME":"EARTH","SEMIMAJOR_AXIS":"6925.340","OBJECT_ID":"2021-036AU","EPHEMERIS_TYPE":"0","PERIOD":"95.592","GP_ID":"214435422","EPOCH":"2022-10-07T19:28:33.025440","DECAY_DATE":null,"CLASSIFICATION_TYPE":"U","APOAPSIS":"548.574","MEAN_MOTION_DDOT":"0.0000000000000","ELEMENT_SET_NO":"999","BSTAR":"0.00024254000000","SITE":"AFETR","INCLINATION":"53.0534","NORAD_CAT_ID":"48318","PERIAPSIS":"545.836","MEAN_MOTION_DOT":"0.00003333","TLE_LINE1":"1 48318U 21036AU  22280.81149335  .00003333  00000-0  24254-3 0  9996","MEAN_ANOMALY":"314.7896","OBJECT_TYPE":"PAYLOAD","TLE_LINE2":"2 48318  53.0534 308.0622 0001977  45.3254 314.7896 15.06402886 79794","TIME_SYSTEM":"UTC","ECCENTRICITY":"0.00019770","FILE":"3595773","REV_AT_EPOCH":"7979","RA_OF_ASC_NODE":"308.0622","COUNTRY_CODE":"US","ARG_OF_PERICENTER":"45.3254","MEAN_ELEMENT_THEORY":"SGP4","OBJECT_NAME":"STARLINK-2509","LAUNCH_DATE":"2021-04-29","MEAN_MOTION":"15.06402886","REF_FRAME":"TEME","RCS_SIZE":"LARGE"},{"OBJECT_TYPE":"PAYLOAD","TLE_LINE2":"2 48319  53.0552 308.0721 0001630  53.1876 306.9263 15.06393525 79798","TLE_LINE1":"1 48319U 21036AV  22280.80686541  .00000837  00000-0  75087-4 0  9998","MEAN_ANOMALY":"306.9263","LAUNCH_DATE":"2021-04-29","MEAN_MOTION":"15.06393525","REF_FRAME":"TEME","RCS_SIZE":"LARGE","TIME_SYSTEM":"UTC","ECCENTRICITY":"0.00016300","FILE":"3595773","REV_AT_EPOCH":"7979","RA_OF_ASC_NODE":"308.0721","ARG_OF_PERICENTER":"53.1876","COUNTRY_CODE":"US","MEAN_ELEMENT_THEORY":"SGP4","OBJECT_NAME":"STARLINK-2512","SEMIMAJOR_AXIS":"6925.368","OBJECT_ID":"2021-036AV","EPHEMERIS_TYPE":"0","PERIOD":"95.593","CENTER_NAME":"EARTH","BSTAR":"0.00007508700000","ELEMENT_SET_NO":"999","SITE":"AFETR","INCLINATION":"53.0552","PERIAPSIS":"546.105","NORAD_CAT_ID":"48319","MEAN_MOTION_DOT":"0.00000837","GP_ID":"214435172","EPOCH":"2022-10-07T19:21:53.171424","DECAY_DATE":null,"CLASSIFICATION_TYPE":"U","MEAN_MOTION_DDOT":"0.0000000000000","APOAPSIS":"548.362"},{"REV_AT_EPOCH":"7979","RA_OF_ASC_NODE":"308.0949","FILE":"3595773","ECCENTRICITY":"0.00017910","TIME_SYSTEM":"UTC","OBJECT_NAME":"STARLINK-2029","MEAN_ELEMENT_THEORY":"SGP4","ARG_OF_PERICENTER":"57.0499","COUNTRY_CODE":"US","LAUNCH_DATE":"2021-04-29","RCS_SIZE":"LARGE","REF_FRAME":"TEME","MEAN_MOTION":"15.06399523","MEAN_ANOMALY":"303.0662","TLE_LINE1":"1 48320U 21036AW  22280.80411978  .00003051  00000-0  22362-3 0  9998","OBJECT_TYPE":"PAYLOAD","TLE_LINE2":"2 48320  53.0536 308.0949 0001791  57.0499 303.0662 15.06399523 79791","CLASSIFICATION_TYPE":"U","DECAY_DATE":null,"GP_ID":"214433920","EPOCH":"2022-10-07T19:17:55.948992","APOAPSIS":"548.455","MEAN_MOTION_DDOT":"0.0000000000000","SITE":"AFETR","ELEMENT_SET_NO":"999","BSTAR":"0.00022362000000","MEAN_MOTION_DOT":"0.00003051","NORAD_CAT_ID":"48320","PERIAPSIS":"545.975","INCLINATION":"53.0536","CENTER_NAME":"EARTH","EPHEMERIS_TYPE":"0","OBJECT_ID":"2021-036AW","SEMIMAJOR_AXIS":"6925.350","PERIOD":"95.592"},{"REF_FRAME":"TEME","MEAN_MOTION":"15.06404563","RCS_SIZE":"LARGE","LAUNCH_DATE":"2021-04-29","COUNTRY_CODE":"US","ARG_OF_PERICENTER":"46.5807","OBJECT_NAME":"STARLINK-2457","MEAN_ELEMENT_THEORY":"SGP4","ECCENTRICITY":"0.00020720","TIME_SYSTEM":"UTC","REV_AT_EPOCH":"7979","RA_OF_ASC_NODE":"308.1112","FILE":"3595773","TLE_LINE2":"2 48321  53.0536 308.1112 0002072  46.5807 313.5354 15.06404563 79799","OBJECT_TYPE":"PAYLOAD","MEAN_ANOMALY":"313.5354","TLE_LINE1":"1 48321U 21036AX  22280.80043109  .00002760  00000-0  20410-3 0  9994","PERIAPSIS":"545.765","NORAD_CAT_ID":"48321","INCLINATION":"53.0536","MEAN_MOTION_DOT":"0.00002760","SITE":"AFETR","BSTAR":"0.00020410000000","ELEMENT_SET_NO":"999","MEAN_MOTION_DDOT":"0.0000000000000","APOAPSIS":"548.635","GP_ID":"214434170","EPOCH":"2022-10-07T19:12:37.246176","DECAY_DATE":null,"CLASSIFICATION_TYPE":"U","PERIOD":"95.592","SEMIMAJOR_AXIS":"6925.335","OBJECT_ID":"2021-036AX","EPHEMERIS_TYPE":"0","CENTER_NAME":"EARTH"},{"MEAN_MOTION_DDOT":"0.0000000000000","APOAPSIS":"548.365","CLASSIFICATION_TYPE":"U","DECAY_DATE":null,"EPOCH":"2022-10-07T11:09:36.965952","GP_ID":"214413029","MEAN_MOTION_DOT":"0.00001412","NORAD_CAT_ID":"48322","PERIAPSIS":"546.067","INCLINATION":"53.0548","SITE":"AFETR","ELEMENT_SET_NO":"999","BSTAR":"0.00011370000000","CENTER_NAME":"EARTH","PERIOD":"95.592","EPHEMERIS_TYPE":"0","OBJECT_ID":"2021-036AY","SEMIMAJOR_AXIS":"6925.351","OBJECT_NAME":"STARLINK-2477","MEAN_ELEMENT_THEORY":"SGP4","COUNTRY_CODE":"US","ARG_OF_PERICENTER":"58.1012","REV_AT_EPOCH":"8033","RA_OF_ASC_NODE":"309.6140","FILE":"3595732","ECCENTRICITY":"0.00016590","TIME_SYSTEM":"UTC","RCS_SIZE":"LARGE","REF_FRAME":"TEME","MEAN_MOTION":"15.06399246","LAUNCH_DATE":"2021-04-29","MEAN_ANOMALY":"302.0138","TLE_LINE1":"1 48322U 21036AY  22280.46501118  .00001412  00000-0  11370-3 0  9994","TLE_LINE2":"2 48322  53.0548 309.6140 0001659  58.1012 302.0138 15.06399246 80333","OBJECT_TYPE":"PAYLOAD"},{"MEAN_MOTION_DDOT":"0.0000000000000","APOAPSIS":"548.554","EPOCH":"2022-10-07T19:02:00.534336","GP_ID":"214435673","CLASSIFICATION_TYPE":"U","DECAY_DATE":null,"NORAD_CAT_ID":"48323","PERIAPSIS":"545.908","INCLINATION":"53.0546","MEAN_MOTION_DOT":"0.00000546","SITE":"AFETR","ELEMENT_SET_NO":"999","BSTAR":"0.00005555700000","CENTER_NAME":"EARTH","PERIOD":"95.592","SEMIMAJOR_AXIS":"6925.366","EPHEMERIS_TYPE":"0","OBJECT_ID":"2021-036AZ","COUNTRY_CODE":"US","ARG_OF_PERICENTER":"53.4103","OBJECT_NAME":"STARLINK-2515","MEAN_ELEMENT_THEORY":"SGP4","ECCENTRICITY":"0.00019100","TIME_SYSTEM":"UTC","REV_AT_EPOCH":"7979","RA_OF_ASC_NODE":"308.1342","FILE":"3595773","REF_FRAME":"TEME","MEAN_MOTION":"15.06394347","RCS_SIZE":"LARGE","LAUNCH_DATE":"2021-04-29","MEAN_ANOMALY":"306.7061","TLE_LINE1":"1 48323U 21036AZ  22280.79306174  .00000546  00000-0  55557-4 0  9999","TLE_LINE2":"2 48323  53.0546 308.1342 0001910  53.4103 306.7061 15.06394347 79790","OBJECT_TYPE":"PAYLOAD"},{"SITE":"AFETR","BSTAR":"0.00014184000000","ELEMENT_SET_NO":"999","NORAD_CAT_ID":"48324","PERIAPSIS":"546.093","INCLINATION":"53.0569","MEAN_MOTION_DOT":"0.00001832","EPOCH":"2022-10-07T18:55:20.770176","GP_ID":"214434421","CLASSIFICATION_TYPE":"U","DECAY_DATE":null,"APOAPSIS":"548.343","MEAN_MOTION_DDOT":"0.0000000000000","SEMIMAJOR_AXIS":"6925.353","OBJECT_ID":"2021-036BA","EPHEMERIS_TYPE":"0","PERIOD":"95.592","CENTER_NAME":"EARTH","LAUNCH_DATE":"2021-04-29","REF_FRAME":"TEME","MEAN_MOTION":"15.06398588","RCS_SIZE":"LARGE","ECCENTRICITY":"0.00016240","TIME_SYSTEM":"UTC","REV_AT_EPOCH":"7978","RA_OF_ASC_NODE":"308.1402","FILE":"3595773","COUNTRY_CODE":"US","ARG_OF_PERICENTER":"70.7902","OBJECT_NAME":"STARLINK-2527","MEAN_ELEMENT_THEORY":"SGP4","OBJECT_TYPE":"PAYLOAD","TLE_LINE2":"2 48324  53.0569 308.1402 0001624  70.7902 289.3262 15.06398588 79783","MEAN_ANOMALY":"289.3262","TLE_LINE1":"1 48324U 21036BA  22280.78843484  .00001832  00000-0  14184-3 0  9998"},{"DECAY_DATE":null,"CLASSIFICATION_TYPE":"U","GP_ID":"214434671","EPOCH":"2022-10-07T18:51:24.336576","MEAN_MOTION_DDOT":"0.0000000000000","APOAPSIS":"548.468","BSTAR":"0.00013050000000","ELEMENT_SET_NO":"999","SITE":"AFETR","MEAN_MOTION_DOT":"0.00001662","INCLINATION":"53.0540","NORAD_CAT_ID":"48325","PERIAPSIS":"546.021","CENTER_NAME":"EARTH","EPHEMERIS_TYPE":"0","OBJECT_ID":"2021-036BB","SEMIMAJOR_AXIS":"6925.379","PERIOD":"95.593","FILE":"3595773","REV_AT_EPOCH":"7979","RA_OF_ASC_NODE":"308.1812","TIME_SYSTEM":"UTC","ECCENTRICITY":"0.00017670","MEAN_ELEMENT_THEORY":"SGP4","OBJECT_NAME":"STARLINK-2495","ARG_OF_PERICENTER":"56.0405","COUNTRY_CODE":"US","LAUNCH_DATE":"2021-04-29","RCS_SIZE":"LARGE","MEAN_MOTION":"15.06389982","REF_FRAME":"TEME","TLE_LINE1":"1 48325U 21036BB  22280.78569834  .00001662  00000-0  13050-3 0  9995","MEAN_ANOMALY":"304.0752","OBJECT_TYPE":"PAYLOAD","TLE_LINE2":"2 48325  53.0540 308.1812 0001767  56.0405 304.0752 15.06389982 79799"}];
